GLOBALSTAR M024         
1 25883U 99043A   25288.86914781 -.00000013  00000+0  18432-2 0  9994
2 25883  51.9985 108.3182 0000590 344.9795 154.8352 11.10170442128261
GLOBALSTAR M027         
1 25884U 99043B   25288.78704426 -.00000021  00000+0  16193-2 0  9990
2 25884  52.0195 189.9059 0020879 184.4207 175.6404 11.04372679154562
GLOBALSTAR M054         
1 25885U 99043C   25288.79864721 -.00000052  00000+0  48720-3 0  9993
2 25885  52.0138 296.9402 0005365  23.9375 146.9940 11.39220848132792
GLOBALSTAR M053         
1 25886U 99043D   25288.65230440 -.00000054  00000+0  42290-3 0  9992
2 25886  51.9971 251.0672 0003318 296.3473 234.7517 11.27667670133037
GLOBALSTAR M058         
1 25907U 99049A   25288.85443247 -.00000079  00000+0  75162-4 0  9997
2 25907  51.9920 146.9601 0002506 126.8986 233.2079 11.93202992555943
GLOBALSTAR M050         
1 25908U 99049B   25288.84287140  .00000030  00000+0  13373-2 0  9995
2 25908  51.9965 145.6528 0008100 274.0267 220.2197 12.07459044162760
GLOBALSTAR M033         
1 25909U 99049C   25288.51092133 -.00000193  00000+0 -97764-3 0  9995
2 25909  51.9942  10.0828 0014327 151.4449 208.7186 12.20294794550430
GLOBALSTAR M055         
1 25910U 99049D   25288.41869000 -.00000065  00000+0  25149-3 0  9996
2 25910  52.0049  15.2366 0006970  26.3508 333.7697 12.29433710183077
